{
  "type": "FeatureCollection",
  "features": [
    {
      "type": "Feature",
      "properties": {
        "norad_id": 44231,
        "name": "BEIDOU-2 G8 (C01)",
        "group": "gnss",
        "lat": 1.0632122026915394,
        "lon": 112.74258775581715,
        "alt_km": 35812.18521439778,
        "timestamp": "2025-12-27T15:27:11.434548+00:00",
        "meta_object_name": "BEIDOU-2 G8 (C01)",
        "meta_object_id": "2019-027A",
        "meta_epoch": "2025-12-27T05:07:43.057056",
        "meta_mean_motion": 1.00273552,
        "meta_eccentricity": 0.00083512,
        "meta_inclination": 1.6963,
        "meta_ra_of_asc_node": 74.7446,
        "meta_arg_of_pericenter": 258.7361,
        "meta_mean_anomaly": 343.9236,
        "meta_ephemeris_type": 0,
        "meta_classification_type": "U",
        "meta_norad_cat_id": 44231,
        "meta_element_set_no": 999,
        "meta_rev_at_epoch": 2435,
        "meta_bstar": 0,
        "meta_mean_motion_dot": -2.25e-06,
        "meta_mean_motion_ddot": 0,
        "tle_line1": "1 44231U 19027A   25361.21369279 -.00000225  00000+0  00000+0 0  9997",
        "tle_line2": "2 44231   1.6963  74.7446 0008351 258.7361 343.9236  1.00273552 24351"
      },
      "geometry": {
        "type": "Point",
        "coordinates": [
          112.74258775581715,
          1.0632122026915394
        ]
      }
    },
    {
      "type": "Feature",
      "properties": {
        "norad_id": 44299,
        "name": "COSMOS 2534 (758)",
        "group": "gnss",
        "lat": -53.68678114352251,
        "lon": 157.5847751655153,
        "alt_km": 19114.444017496564,
        "timestamp": "2025-12-27T15:27:11.434560+00:00",
        "meta_object_name": "COSMOS 2534 (758)",
        "meta_object_id": "2019-030A",
        "meta_epoch": "2025-12-27T06:13:44.235264",
        "meta_mean_motion": 2.13102131,
        "meta_eccentricity": 0.00086203,
        "meta_inclination": 64.3665,
        "meta_ra_of_asc_node": 198.4034,
        "meta_arg_of_pericenter": 283.9427,
        "meta_mean_anomaly": 77.8504,
        "meta_ephemeris_type": 0,
        "meta_classification_type": "U",
        "meta_norad_cat_id": 44299,
        "meta_element_set_no": 999,
        "meta_rev_at_epoch": 5126,
        "meta_bstar": 0,
        "meta_mean_motion_dot": 1.21e-06,
        "meta_mean_motion_ddot": 0,
        "tle_line1": "1 44299U 19030A   25361.25953976  .00000121  00000+0  00000+0 0  9996",
        "tle_line2": "2 44299  64.3665 198.4034 0008620 283.9427  77.8504  2.13102131 51269"
      },
      "geometry": {
        "type": "Point",
        "coordinates": [
          157.5847751655153,
          -53.68678114352251
        ]
      }
    },
    {
      "type": "Feature",
      "properties": {
        "norad_id": 44337,
        "name": "BEIDOU-3 IGSO-2 (C39)",
        "group": "gnss",
        "lat": -51.52900304813167,
        "lon": 99.32527613155999,
        "alt_km": 35779.02859171512,
        "timestamp": "2025-12-27T15:27:11.434574+00:00",
        "meta_object_name": "BEIDOU-3 IGSO-2 (C39)",
        "meta_object_id": "2019-035A",
        "meta_epoch": "2025-12-26T08:27:52.331328",
        "meta_mean_motion": 1.00266958,
        "meta_eccentricity": 0.0037903,
        "meta_inclination": 55.2292,
        "meta_ra_of_asc_node": 160.3818,
        "meta_arg_of_pericenter": 202.693,
        "meta_mean_anomaly": 338.2763,
        "meta_ephemeris_type": 0,
        "meta_classification_type": "U",
        "meta_norad_cat_id": 44337,
        "meta_element_set_no": 999,
        "meta_rev_at_epoch": 2393,
        "meta_bstar": 0,
        "meta_mean_motion_dot": -6e-07,
        "meta_mean_motion_ddot": 0,
        "tle_line1": "1 44337U 19035A   25360.35268902 -.00000060  00000+0  00000+0 0  9995",
        "tle_line2": "2 44337  55.2292 160.3818 0037903 202.6930 338.2763  1.00266958 23935"
      },
      "geometry": {
        "type": "Point",
        "coordinates": [
          99.32527613155999,
          -51.52900304813167
        ]
      }
    },
    {
      "type": "Feature",
      "properties": {
        "norad_id": 44506,
        "name": "GPS BIII-2  (PRN 18)",
        "group": "gnss",
        "lat": 1.8319675852706003,
        "lon": -20.800158799180494,
        "alt_km": 20328.894577293835,
        "timestamp": "2025-12-27T15:27:11.434587+00:00",
        "meta_object_name": "GPS BIII-2  (PRN 18)",
        "meta_object_id": "2019-056A",
        "meta_epoch": "2025-12-27T04:57:07.509024",
        "meta_mean_motion": 2.00566436,
        "meta_eccentricity": 0.00577832,
        "meta_inclination": 55.7159,
        "meta_ra_of_asc_node": 337.9791,
        "meta_arg_of_pericenter": 198.6912,
        "meta_mean_anomaly": 207.4139,
        "meta_ephemeris_type": 0,
        "meta_classification_type": "U",
        "meta_norad_cat_id": 44506,
        "meta_element_set_no": 999,
        "meta_rev_at_epoch": 4662,
        "meta_bstar": 0,
        "meta_mean_motion_dot": -6e-07,
        "meta_mean_motion_ddot": 0,
        "tle_line1": "1 44506U 19056A   25361.20633691 -.00000060  00000+0  00000+0 0  9992",
        "tle_line2": "2 44506  55.7159 337.9791 0057783 198.6912 207.4139  2.00566436 46624"
      },
      "geometry": {
        "type": "Point",
        "coordinates": [
          -20.800158799180494,
          1.8319675852706003
        ]
      }
    },
    {
      "type": "Feature",
      "properties": {
        "norad_id": 44542,
        "name": "BEIDOU-3 M24 (C46)",
        "group": "gnss",
        "lat": 22.093227961997325,
        "lon": -8.39567005992511,
        "alt_km": 21541.25734922169,
        "timestamp": "2025-12-27T15:27:11.434598+00:00",
        "meta_object_name": "BEIDOU-3 M24 (C46)",
        "meta_object_id": "2019-061A",
        "meta_epoch": "2025-12-25T19:20:31.720416",
        "meta_mean_motion": 1.86229328,
        "meta_eccentricity": 0.00095592,
        "meta_inclination": 54.4007,
        "meta_ra_of_asc_node": 188.5751,
        "meta_arg_of_pericenter": 26.2339,
        "meta_mean_anomaly": 333.8493,
        "meta_ephemeris_type": 0,
        "meta_classification_type": "U",
        "meta_norad_cat_id": 44542,
        "meta_element_set_no": 999,
        "meta_rev_at_epoch": 4256,
        "meta_bstar": 0,
        "meta_mean_motion_dot": 1.16e-06,
        "meta_mean_motion_ddot": 0,
        "tle_line1": "1 44542U 19061A   25359.80592269  .00000116  00000+0  00000+0 0  9997",
        "tle_line2": "2 44542  54.4007 188.5751 0009559  26.2339 333.8493  1.86229328 42560"
      },
      "geometry": {
        "type": "Point",
        "coordinates": [
          -8.39567005992511,
          22.093227961997325
        ]
      }
    },
    {
      "type": "Feature",
      "properties": {
        "norad_id": 44543,
        "name": "BEIDOU-3 M23 (C45)",
        "group": "gnss",
        "lat": 47.46291745193829,
        "lon": -120.15739875790302,
        "alt_km": 21509.80667469324,
        "timestamp": "2025-12-27T15:27:11.434611+00:00",
        "meta_object_name": "BEIDOU-3 M23 (C45)",
        "meta_object_id": "2019-061B",
        "meta_epoch": "2025-12-26T11:37:48.857664",
        "meta_mean_motion": 1.86227559,
        "meta_eccentricity": 0.0005976,
        "meta_inclination": 54.3995,
        "meta_ra_of_asc_node": 188.5205,
        "meta_arg_of_pericenter": 25.6827,
        "meta_mean_anomaly": 342.0898,
        "meta_ephemeris_type": 0,
        "meta_classification_type": "U",
        "meta_norad_cat_id": 44543,
        "meta_element_set_no": 999,
        "meta_rev_at_epoch": 4258,
        "meta_bstar": 0,
        "meta_mean_motion_dot": 1.22e-06,
        "meta_mean_motion_ddot": 0,
        "tle_line1": "1 44543U 19061B   25360.48459326  .00000122  00000+0  00000+0 0  9997",
        "tle_line2": "2 44543  54.3995 188.5205 0005976  25.6827 342.0898  1.86227559 42581"
      },
      "geometry": {
        "type": "Point",
        "coordinates": [
          -120.15739875790302,
          47.46291745193829
        ]
      }
    },
    {
      "type": "Feature",
      "properties": {
        "norad_id": 44624,
        "name": "EUTELSAT 5 WEST B (EGNOS/PRN 121)",
        "group": "gnss",
        "lat": -0.038390482302510395,
        "lon": -36.811483479927745,
        "alt_km": 35777.05853248244,
        "timestamp": "2025-12-27T15:27:11.434623+00:00",
        "meta_object_name": "EUTELSAT 5 WEST B (EGNOS/PRN 121)",
        "meta_object_id": "2019-067A",
        "meta_epoch": "2025-12-27T04:42:38.441664",
        "meta_mean_motion": 1.00271215,
        "meta_eccentricity": 0.00032747,
        "meta_inclination": 0.0618,
        "meta_ra_of_asc_node": 348.7107,
        "meta_arg_of_pericenter": 285.9376,
        "meta_mean_anomaly": 246.9417,
        "meta_ephemeris_type": 0,
        "meta_classification_type": "U",
        "meta_norad_cat_id": 44624,
        "meta_element_set_no": 999,
        "meta_rev_at_epoch": 2271,
        "meta_bstar": 0,
        "meta_mean_motion_dot": -2e-07,
        "meta_mean_motion_ddot": 0,
        "tle_line1": "1 44624U 19067A   25361.19627826 -.00000020  00000+0  00000+0 0  9992",
        "tle_line2": "2 44624   0.0618 348.7107 0003274 285.9376 246.9417  1.00271215 22717"
      },
      "geometry": {
        "type": "Point",
        "coordinates": [
          -36.811483479927745,
          -0.038390482302510395
        ]
      }
    }
  ]
}